YOTSUBA-KULOVER         
1 65941U 98067XN  26063.07381848  .00226043  00000+0  12720-2 0  9991
2 65941  51.6208  86.3668 0006098  32.9747 327.1633 15.77989263 22614
BOTAN                   
1 65942U 98067XP  26062.30429370  .04760636  12041-4  14503-2 0  9999
2 65942  51.6040  82.5602 0002926  46.9281 313.1984 16.26065139 22592
E-KAGAKU-1              
1 65943U 98067XQ  26063.07717679  .00219013  00000+0  12483-2 0  9993
2 65943  51.6231  86.4051 0006255  40.9518 319.1952 15.77722177 22613
HRC MONOBLOCK CAMERA    
1 66052U 98067XR  26063.06976557  .00063635  00000+0  72884-3 0  9995
2 66052  51.6271  93.8827 0003424  65.6945 294.4406 15.61501169 21511
HTV-X1                  
1 66174U 25241A   26063.15679535  .00010207  00000+0  19684-3 0  9996
2 66174  51.6316  99.7104 0008201 155.0339 205.1047 15.48434477555758
SZ-21 MODULE            
1 66515U 25246C   26062.76916662  .00044751  00000+0  39281-3 0  9997
2 66515  41.4730 239.7930 0001447 287.9355  72.1329 15.68011820 17141
SHENZHOU-22             
1 66645U 25272A   26063.14773523  .00030185  00000+0  35996-3 0  9995
2 66645  41.4658 241.8750 0006828 240.6834 119.3323 15.60380094268256
SOYUZ-MS 28             
1 66664U 25275A   26063.15679535  .00010207  00000+0  19684-3 0  9997
2 66664  51.6316  99.7104 0008201 155.0339 205.1047 15.48434477555910
DUPLEX                  
1 66906U 98067XS  26063.12706061  .00039457  00000+0  56459-3 0  9996
2 66906  51.6284  97.2659 0002066  91.2165 268.9063 15.55805155 14268
ISS OBJECT XT           
1 66907U 98067XT  26063.10271002  .00174880  00000+0  15595-2 0  9992
2 66907  51.6245  94.0932 0004672  41.2658 318.8690 15.67342858 14307
ISS OBJECT XU           
1 66908U 98067XU  26063.10128458  .00178631  00000+0  15859-2 0  9990
2 66908  51.6244  94.0803 0004715  45.5168 314.6213 15.67438854 14302
SILVERSAT               
1 66909U 98067XV  26063.11194191  .00216262  00000+0  17275-2 0  9996
2 66909  51.6238  93.4007 0005539  42.4884 317.6541 15.69884457 14315
